PROBA-1                 
1 26958U 01049B   17279.37459996  .00000514  00000-0  49876-4 0  9990
2 26958  97.5763 242.5950 0072444 316.9070  42.6498 14.95111302868139
BIRD 2                  
1 26959U 01049C   17279.42718467  .00003463  00000-0  10504-3 0  9999
2 26959  97.7991 232.6736 0008722   1.1600 358.9661 15.34846270883389
CUTE-1 (CO-55)          
1 27844U 03031E   17279.45612378  .00000085  00000-0  58309-4 0  9996
2 27844  98.6906 286.8473 0010330  31.4602 328.7192 14.22064623740133
CUBESAT XI-IV (CO-57)   
1 27848U 03031J   17279.48615199  .00000067  00000-0  50583-4 0  9993
2 27848  98.6997 287.1821 0010377  40.5800 319.6149 14.21675814740017
GENESIS 1               
1 29252U 06029A   17279.44105929  .00001072  00000-0  63942-4 0  9995
2 29252  64.5032 282.1190 0026363 316.4430  43.4610 15.16962499618708
FALCONSAT-3             
1 30776U 07006E   17278.90784492  .00005831  00000-0  17971-3 0  9999
2 30776  35.4354  83.8777 0004030 257.6003 102.4271 15.33015061585256
GENESIS 2               
1 31789U 07028A   17278.61605836  .00000651  00000-0  43810-4 0  9997
2 31789  64.5044 323.1513 0017903 215.6963 144.2963 15.16234541565651
APRIZESAT 4             
1 35684U 09041D   17279.40502542  .00000163  00000-0  29052-4 0  9990
2 35684  98.1384 222.9071 0048669  98.9847  14.5552 14.79064946441575
APRIZESAT 3             
1 35686U 09041F   17279.44626226  .00000269  00000-0  35540-4 0  9998
2 35686  98.2802 283.6999 0073474  13.2298 347.0821 14.87121947443724
PROBA-2                 
1 36037U 09059B   17279.43074733  .00000023  00000-0  16507-4 0  9997
2 36037  98.2492 111.1111 0013386 359.4533   0.6646 14.53013019420280
APRIZESAT 5             
1 37792U 11044E   17278.94112256  .00000134  00000-0  27565-4 0  9990
2 37792  98.3539  65.4403 0059477  59.3798 301.3257 14.75170208330048
APRIZESAT 6             
1 37793U 11044F   17279.33644102  .00000155  00000-0  32754-4 0  9994
2 37793  98.3043  50.0269 0048318  82.5588 330.1769 14.72246072329626
TET-1                   
1 38710U 12039D   17279.47741588  .00005620  00000-0  11709-3 0  9998
2 38710  97.5561 240.1042 0002720 125.1760 234.9744 15.46020932291434
STSAT-2C                
1 39068U 13003A   17278.86430341  .00038345 -50308-6  32413-3 0  9999
2 39068  80.1970 326.8548 0330971  86.5622 277.3399 15.22614955249310
PROBA-V                 
1 39159U 13021A   17278.82409387 -.00000032  00000-0  47959-5 0  9995
2 39159  98.5886 352.2404 0005288  57.9933 302.1752 14.22948634229334
CUSAT 1                 
1 39266U 13055B   17279.44434230  .00005003  00000-0  14201-3 0  9999
2 39266  80.9858 252.6464 0656444 264.1809  88.4230 14.30266571207890
STPSAT-3                
1 39380U 13064A   17279.22119819  .00003101  00000-0  95553-4 0  9992
2 39380  40.5004 191.2130 0005528 248.8469 111.1754 15.35026614216840
APRIZESAT 7             
1 39416U 13066A   17279.37343929  .00000184  00000-0  28252-4 0  9991
2 39416  97.6213 324.5634 0039943 246.7013 112.9996 14.83734899209713
APRIZESAT 8             
1 39425U 13066K   17279.15748418  .00000136  00000-0  23810-4 0  9991
2 39425  97.6167 317.9434 0050554 262.9142  96.6321 14.80977061209323
BUGSAT-1 (TITA)         
1 40014U 14033E   17278.82649897  .00001317  00000-0  12538-3 0  9992
2 40014  97.9558 205.1811 0031200 321.5022  38.3995 14.94861726179735
SAUDISAT 4              
1 40016U 14033G   17278.73985696  .00000097  00000-0  21761-4 0  9997
2 40016  97.8454 162.9839 0047112 291.9027  67.7177 14.75139920177431
TABLETSAT-AURORA        
1 40017U 14033H   17278.93500582  .00000880  00000-0  90324-4 0  9998
2 40017  97.9422 200.4779 0022859 324.5249  35.4448 14.92888959179481
APRIZESAT 9             
1 40018U 14033J   17278.71241059  .00000092  00000-0  23113-4 0  9993
2 40018  97.8258 151.6700 0070641 317.8287  41.7497 14.69827199176594
APRIZESAT 10            
1 40019U 14033K   17278.70899476  .00000053  00000-0  17547-4 0  9996
2 40019  97.8188 145.6467 0083808 333.1733  26.5149 14.66896403176244
AISAT                   
1 40054U 14034B   17278.89857231  .00000724  00000-0  10966-3 0  9991
2 40054  98.1929  20.1861 0013827  55.0462 305.2044 14.77210377176061
CANX-4                  
1 40055U 14034C   17278.84186428  .00000181  00000-0  35068-4 0  9998
2 40055  98.1880  17.0993 0015501  70.7923 289.4961 14.74646104175839
CANX-5                  
1 40056U 14034D   17278.84318737  .00000189  00000-0  36169-4 0  9990
2 40056  98.1880  17.0972 0015523  70.9732 289.3156 14.74643127166647
TDS 1                   
1 40076U 14037H   17279.35781835  .00000184  00000-0  30874-4 0  9997
2 40076  98.3410  34.8578 0007372  76.2639 283.9400 14.81359419175487
TIANTUO 2               
1 40144U 14053B   17279.41590959  .00001633  00000-0  52971-4 0  9995
2 40144  97.3180   0.6956 0010119 228.2987 262.1538 15.33387362172030
TECHNOSAT               
1 42829U 17042E   17279.44398190  .00000388  00000-0  44982-4 0  9993
2 42829  97.6074 186.1099 0013542 328.9630  31.0788 14.90684626 12534
FLYING LAPTOP           
1 42831U 17042G   17279.37535045  .00000412  00000-0  47429-4 0  9997
2 42831  97.6076 186.0492 0013477 329.7354  30.3085 14.90712442 12512
